[{"OBJECT_NAME":"STARLINK-34629","OBJECT_ID":"2025-150A","EPOCH":"2026-03-09T13:59:24.085824","MEAN_MOTION":14.98326529,"ECCENTRICITY":0.0003243,"INCLINATION":70.0042,"RA_OF_ASC_NODE":134.6192,"ARG_OF_PERICENTER":293.7349,"MEAN_ANOMALY":66.3469,"EPHEMERIS_TYPE":0,"CLASSIFICATION_TYPE":"U","NORAD_CAT_ID":64790,"ELEMENT_SET_NO":999,"REV_AT_EPOCH":3650,"BSTAR":0.00012593,"MEAN_MOTION_DOT":1.41e-5,"MEAN_MOTION_DDOT":0},{"OBJECT_NAME":"FENGYUN 1C DEB","OBJECT_ID":"1999-025CJB","EPOCH":"2026-03-04T10:30:16.287264","MEAN_MOTION":14.84272597,"ECCENTRICITY":0.00915644,"INCLINATION":98.0869,"RA_OF_ASC_NODE":145.0566,"ARG_OF_PERICENTER":112.3308,"MEAN_ANOMALY":248.7643,"EPHEMERIS_TYPE":0,"CLASSIFICATION_TYPE":"U","NORAD_CAT_ID":31837,"ELEMENT_SET_NO":999,"REV_AT_EPOCH":99570,"BSTAR":0.0020173845,"MEAN_MOTION_DOT":0.00018196,"MEAN_MOTION_DDOT":0}]
